1 20671U 90057B   13218.19608953 -.00000003  00000-0 -15733-4 0  9991
2 20671 082.5445 053.6485 0014134 323.6439 087.2972 13.84558100167813
1 20671U 90057B   13219.49826145  .00000005  00000-0 -87034-5 0  9995
2 20671 082.5447 052.6130 0014116 319.7736 098.0673 13.84558154167993
1 20671U 90057B   13220.88252314  .00000033  00000-0  16721-4 0  9995
2 20671 082.5448 051.5122 0014057 315.5886 158.0927 13.84557972168185
1 20671U 90057B   13222.17105348  .00000030  00000-0  13614-4 0  9998
2 20671 082.5448 050.4876 0014016 311.6302 100.9940 13.84557772168363
1 20671U 90057B   13223.54031012  .00000053  00000-0  34378-4 0  9991
2 20671 082.5448 049.3988 0013991 307.4613 086.2513 13.84557945168558
1 20671U 90057B   13224.55201404  .00000061  00000-0  41605-4 0  9997
2 20671 082.5448 048.5942 0013963 304.3563 089.2609 13.84557992168694
1 20671U 90057B   13226.14880586  .00000040  00000-0  22900-4 0  9992
2 20671 082.5448 047.3244 0013935 299.4733 128.7219 13.84558020168912
1 20671U 90057B   13227.15852397  .00000015  00000-0 -52097-7 0  9999
2 20671 082.5450 046.5214 0013925 296.3776 121.8285 13.84558182169057
1 20671U 90057B   13228.52664718  .00000005  00000-0 -90678-5 0  9993
2 20671 082.5452 045.4333 0013908 292.1571 101.4917 13.84558532169243
1 20671U 90057B   13229.53831815  .00000012  00000-0 -24146-5 0  9994
2 20671 082.5454 044.6288 0013891 289.0359 104.3550 13.84558603169384
1 20671U 90057B   13230.78569074  .00000007  00000-0 -70684-5 0  9990
2 20671 082.5457 043.6368 0013891 285.2202 202.0844 13.84558436169555
1 20671U 90057B   13232.14319611  .00000006  00000-0 -81663-5 0  9990
2 20671 082.5460 042.5574 0013916 280.9724 128.8828 13.84558437169744
1 20671U 90057B   13233.15363547  .00000025  00000-0  88936-5 0  9999
2 20671 082.5462 041.7540 0013925 277.8525 125.6099 13.84558367169886
1 20671U 90057B   13234.53982075  .00000052  00000-0  33328-4 0  9999
2 20671 082.5464 040.6519 0013933 273.5423 195.3433 13.84558318170076
1 20671U 90057B   13235.84077991  .00000043  00000-0  25312-4 0  9990
2 20671 082.5465 039.6176 0013940 269.6289 200.1163 13.84558190170251
1 20671U 90057B   13236.86073965  .00000044  00000-0  26363-4 0  9998
2 20671 082.5466 038.8067 0013966 266.5260 244.2516 13.84558291170393
1 20671U 90057B   13237.87215220  .00000055  00000-0  36126-4 0  9992
2 20671 082.5466 038.0026 0013983 263.4156 245.8164 13.84558407170530
1 20671U 90057B   13239.02650564  .00000033  00000-0  16419-4 0  9994
2 20671 082.5467 037.0849 0014012 259.8554 239.9046 13.84558413170695
1 20671U 90057B   13240.03817032  .00000020  00000-0  46932-5 0  9992
2 20671 082.5468 036.2805 0014061 256.7425 242.7274 13.84558577170838
1 20671U 90057B   13241.04907176  .00000019  00000-0  39610-5 0  9996
2 20671 082.5471 035.4768 0014105 253.6601 241.7183 13.84558804170978
1 20671U 90057B   13242.06129604  .00000024  00000-0  83499-5 0  9991
2 20671 082.5474 034.6720 0014128 250.5634 247.3141 13.84558923171112
1 20671U 90057B   13243.48552936  .00000007  00000-0 -66994-5 0  9999
2 20671 082.5477 033.5397 0014221 246.2225 146.6192 13.84558893171310
1 20671U 90057B   13244.50310731 -.00000007  00000-0 -18979-4 0  9998
2 20671 082.5480 032.7307 0014247 243.1514 178.8592 13.84558864171455
1 20671U 90057B   13245.51548463  .00000007  00000-0 -73301-5 0  9995
2 20671 082.5483 031.9260 0014294 240.1479 185.1247 13.84558903171593
1 20671U 90057B   13246.52744044  .00000024  00000-0  78232-5 0  9996
2 20671 082.5485 031.1216 0014335 237.0847 189.3509 13.84558787171731
1 20671U 90057B   13247.53994878  .00000027  00000-0  10491-4 0  9995
2 20671 082.5487 030.3169 0014373 234.0517 196.2984 13.84558575171878
1 20671U 90057B   13248.85752640  .00000029  00000-0  13082-4 0  9991
2 20671 082.5487 029.2696 0014457 230.1781 283.8194 13.84558459172051
1 20671U 90057B   13249.85994061  .00000037  00000-0  19559-4 0  9991
2 20671 082.5488 028.4730 0014546 227.3450 240.2814 13.84558524172196
1 20671U 90057B   13251.02218642  .00000056  00000-0  36791-4 0  9995
2 20671 082.5489 027.5493 0014582 223.8684 273.6049 13.84558701172358
1 20671U 90057B   13252.10385271  .00000050  00000-0  31212-4 0  9995
2 20671 082.5490 026.6896 0014654 220.6912 265.2133 13.84558807172501
1 20671U 90057B   13253.46751328  .00000014  00000-0 -10337-5 0  9992
2 20671 082.5493 025.6058 0014726 216.6998 222.4183 13.84559048172690
1 20671U 90057B   13254.47894829  .00000001  00000-0 -12233-4 0  9990
2 20671 082.5495 024.8019 0014792 213.8218 223.8638 13.84559166172834
1 20671U 90057B   13255.48813231  .00000007  00000-0 -71699-5 0  9998
2 20671 082.5497 023.9997 0014850 210.8849 214.1557 13.84559202172972
1 20671U 90057B   13256.49590499  .00000007  00000-0 -73584-5 0  9993
2 20671 082.5500 023.1988 0014925 208.0449 197.3198 13.84559179173110
1 20671U 90057B   13257.50801814  .00000001  00000-0 -12092-4 0  9992
2 20671 082.5502 022.3945 0014981 205.1274 202.1839 13.84559124173254
1 20671U 90057B   13258.97158781  .00000022  00000-0  66101-5 0  9995
2 20671 082.5505 021.2315 0015068 200.9625 297.2736 13.84559024173458
1 20671U 90057B   13259.98322757  .00000038  00000-0  20912-4 0  9999
2 20671 082.5506 020.4277 0015133 198.0456 299.7794 13.84558892173597
1 20671U 90057B   13261.48389168  .00000039  00000-0  21059-4 0  9990
2 20671 082.5507 019.2354 0015242 193.8735 219.6648 13.84558850173801
1 20671U 90057B   13262.94632117  .00000043  00000-0  25197-4 0  9999
2 20671 082.5506 018.0735 0015336 189.8708 308.9106 13.84558993174001
1 20671U 90057B   13263.95802515  .00000048  00000-0  29407-4 0  9995
2 20671 082.5505 017.2697 0015403 187.0150 311.6746 13.84559056174141
1 20671U 90057B   13265.38740074  .00000025  00000-0  91218-5 0  9990
2 20671 082.5505 016.1340 0015506 182.9865 236.2845 13.84559130174342
1 20671U 90057B   13266.39987626  .00000013  00000-0 -20627-5 0  9992
2 20671 082.5506 015.3295 0015571 180.2781 242.7442 13.84559310174483
1 20671U 90057B   13267.48103218  .00000010  00000-0 -40089-5 0  9991
2 20671 082.5507 014.4704 0015635 177.4357 231.4775 13.84559418174637
1 20671U 90057B   13268.79414712  .00000019  00000-0  36711-5 0  9995
2 20671 082.5509 013.4271 0015714 173.8349 296.4978 13.84559489174810
1 20671U 90057B   13269.81404554  .00000017  00000-0  18195-5 0  9996
2 20671 082.5510 012.6168 0015780 171.0582 340.0053 13.84559520174951
1 20671U 90057B   13270.82109529  .00000012  00000-0 -26043-5 0  9990
2 20671 082.5512 011.8166 0015838 168.2688 319.5186 13.84559491175092
1 20671U 90057B   13271.83726624  .00000020  00000-0  43079-5 0  9999
2 20671 082.5512 011.0094 0015891 165.5831 344.3668 13.84559457175232
1 20671U 90057B   13273.41106348  .00000042  00000-0  24315-4 0  9995
2 20671 082.5512 009.7591 0016001 161.2997 268.6875 13.84559285175459
1 20671U 90057B   13274.79981297  .00000039  00000-0  21708-4 0  9990
2 20671 082.5510 008.6559 0016056 157.6813 350.5061 13.84559209175640
1 20671U 90057B   13275.81184777  .00000054  00000-0  34631-4 0  9998
2 20671 082.5508 007.8518 0016096 155.0327 354.7120 13.84559416175786
1 20671U 90057B   13276.82050920  .00000050  00000-0  31126-4 0  9994
2 20671 082.5507 007.0505 0016157 152.2813 342.2161 13.84559420175928
1 20671U 90057B   13277.83326729  .00000045  00000-0  26631-4 0  9998
2 20671 082.5505 006.2459 0016213 149.5650 350.0927 13.84559512176061
1 20671U 90057B   13278.84495394  .00000027  00000-0  10980-4 0  9995
2 20671 082.5504 005.4421 0016248 146.9324 352.5478 13.84559660176205
1 20671U 90057B   13280.19374603  .00000011  00000-0 -37053-5 0  9990
2 20671 082.5503 004.3704 0016311 143.3545 235.2753 13.84559875176394
1 20671U 90057B   13281.20751638  .00000034  00000-0  17130-4 0  9997
2 20671 082.5504 003.5649 0016336 140.7123 248.1226 13.84560057176532
1 20671U 90057B   13282.36709988  .00000015  00000-0 -11807-6 0  9993
2 20671 082.5504 002.6435 0016387 137.6852 267.7383 13.84559968176692
1 20671U 90057B   13283.54017137  .00000016  00000-0  62063-6 0  9992
2 20671 082.5504 001.7114 0016421 134.6418 354.5626 13.84559859176852
1 20671U 90057B   13286.19915281  .00000052  00000-0  33043-4 0  9997
2 20671 082.5501 359.5988 0016500 127.6805 287.5241 13.84559732177222
1 20671U 90057B   13287.35830766  .00000046  00000-0  27288-4 0  9997
2 20671 082.5498 358.6779 0016514 124.6939 304.9638 13.84559683177381
1 20671U 90057B   13288.44323507  .00000051  00000-0  31835-4 0  9997
2 20671 082.5496 357.8159 0016515 121.8734 312.4653 13.84559805177539
1 20671U 90057B   13289.45542352  .00000056  00000-0  36920-4 0  9995
2 20671 082.5493 357.0117 0016550 119.2435 317.4200 13.84559974177675
1 20671U 90057B   13290.69084664  .00000051  00000-0  31900-4 0  9998
2 20671 082.5491 356.0301 0016557 116.0214 355.0337 13.84560065177845
1 20671U 90057B   13292.19665425  .00000027  00000-0  10642-4 0  9998
2 20671 082.5488 354.8335 0016595 112.1399 300.2563 13.84560333178052
1 20671U 90057B   13293.20849727  .00000026  00000-0  10106-4 0  9994
2 20671 082.5487 354.0293 0016597 109.5436 303.4578 13.84560510178193
1 20671U 90057B   13294.52202012  .00000039  00000-0  20935-4 0  9995
2 20671 082.5487 352.9854 0016594 106.1920 010.2670 13.84560505178371
1 20671U 90057B   13295.53206266  .00000021  00000-0  53790-5 0  9999
2 20671 082.5487 352.1827 0016592 103.5605 004.5348 13.84560399178517
1 20671U 90057B   13296.54373175  .00000020  00000-0  40293-5 0  9998
2 20671 082.5486 351.3786 0016568 100.9564 006.8782 13.84560446178654
1 20671U 90057B   13297.62778459  .00000040  00000-0  21824-4 0  9992
2 20671 082.5485 350.5171 0016550 098.1248 010.0371 13.84560551178805
1 20671U 90057B   13298.63975439  .00000049  00000-0  30674-4 0  9993
2 20671 082.5484 349.7129 0016549 095.5038 013.8962 13.84560444178946
1 20671U 90057B   13299.72979159  .00000051  00000-0  32431-4 0  9993
2 20671 082.5481 348.8468 0016560 092.7212 046.8181 13.84560334179099
1 20671U 90057B   13300.74144066  .00000051  00000-0  32417-4 0  9993
2 20671 082.5478 348.0428 0016546 090.1236 049.0554 13.84560401179235
